STARLINK-5532           
1 55760U 23028V   26068.87818377  .00001075  00000+0  97836-4 0  9998
2 55760  69.9992 243.7677 0003132 266.5125  93.5676 14.98337029166073
SHIYAN-24C 02           
1 58651U 23206B   26068.89175597  .00002770  00000+0  23935-3 0  9991
2 58651  97.3985  41.8071 0003465  80.6641 279.4974 14.97980163120443
